[{"OBJECT_NAME":"IRIDIUM 103","OBJECT_ID":"2017-003B","EPOCH":"2026-03-09T15:54:14.180832","MEAN_MOTION":14.34218399,"ECCENTRICITY":0.00020548,"INCLINATION":86.3981,"RA_OF_ASC_NODE":130.0732,"ARG_OF_PERICENTER":88.2192,"MEAN_ANOMALY":271.9239,"EPHEMERIS_TYPE":0,"CLASSIFICATION_TYPE":"U","NORAD_CAT_ID":41918,"ELEMENT_SET_NO":999,"REV_AT_EPOCH":47896,"BSTAR":3.8019926e-5,"MEAN_MOTION_DOT":1.26e-6,"MEAN_MOTION_DDOT":0},{"OBJECT_NAME":"DMSP 5D-2 F13 DEB","OBJECT_ID":"1995-015BC","EPOCH":"2026-03-09T00:47:28.737600","MEAN_MOTION":14.31767627,"ECCENTRICITY":0.00115027,"INCLINATION":98.6429,"RA_OF_ASC_NODE":95.6653,"ARG_OF_PERICENTER":261.0948,"MEAN_ANOMALY":98.8933,"EPHEMERIS_TYPE":0,"CLASSIFICATION_TYPE":"U","NORAD_CAT_ID":40450,"ELEMENT_SET_NO":999,"REV_AT_EPOCH":57213,"BSTAR":0.0011311779,"MEAN_MOTION_DOT":2.98e-5,"MEAN_MOTION_DDOT":0}]
